     3.02           N: GNSS NAV DATA    G: GPS NAV DATA     RINEX VERSION / TYPE
NetR9 5.44          Receiver Operator   20260225 000001 UTC PGM / RUN BY / DATE
GPSA    .1397D-07   .0000D+00  -.5960D-07   .5960D-07       IONOSPHERIC CORR
GPSB    .1106D+06  -.3277D+05  -.2621D+06   .1966D+06       IONOSPHERIC CORR
GPUT   .0000000000D+00  .621724894D-14 405504 2407          TIME SYSTEM CORR
    18    18  2441     7                                    LEAP SECONDS
                                                            END OF HEADER
G16 2026 02 25 22 00 00  .215122941881D-03  .738964445191D-11  .000000000000D+00
      .310000000000D+02  .242500000000D+02  .468233789531D-08 -.990876994781D+00
      .161118805408D-05  .150520059979D-01  .743381679058D-05  .515364264870D+04
      .338400000000D+06  .193715095520D-06  .117888116877D+01  .320374965668D-06
      .958067001645D+00  .232187500000D+03  .929334208009D+00 -.808569394447D-08
     -.197865384745D-09  .100000000000D+01  .240700000000D+04  .000000000000D+00
      .200000000000D+01  .000000000000D+00 -.107102096081D-07  .310000000000D+02
      .336048000000D+06  .400000000000D+01
G26 2026 02 26 00 00 00 -.332513824105D-03 -.557065504836D-11  .000000000000D+00
      .730000000000D+02  .850000000000D+01  .545558438985D-08  .875386412066D+00
      .542029738426D-06  .109990248457D-01  .711530447006D-05  .515370919228D+04
      .345600000000D+06 -.152736902237D-06  .993579839800D+00  .875443220139D-07
      .928147386458D+00  .226187500000D+03  .709426502964D+00 -.849249660371D-08
     -.270011247052D-09  .100000000000D+01  .240700000000D+04  .000000000000D+00
      .200000000000D+01  .000000000000D+00  .651925802231D-08  .730000000000D+02
      .338418000000D+06  .400000000000D+01
G28 2026 02 26 00 00 00 -.588871072978D-03  .704858393874D-11  .000000000000D+00
      .120000000000D+03 -.119062500000D+02  .452340270359D-08  .278549381607D+01
     -.637024641037D-06  .415087095462D-03  .843219459057D-05  .515378733826D+04
      .345600000000D+06  .186264514923D-07  .184013574847D-01 -.242143869400D-07
      .962238866574D+00  .219406250000D+03  .406391298572D-01 -.788354266691D-08
      .298226708054D-09  .100000000000D+01  .240700000000D+04  .000000000000D+00
      .200000000000D+01  .000000000000D+00 -.977888703346D-08  .376000000000D+03
      .338418000000D+06  .400000000000D+01
G16 2026 02 26 00 00 00  .215176027268D-03  .738964445191D-11  .000000000000D+00
      .320000000000D+02  .154375000000D+02  .471876798420D-08  .592960050023D-01
      .949949026108D-06  .150507669896D-01  .787526369095D-05  .515364013863D+04
      .345600000000D+06 -.819563865662D-07  .117882202299D+01  .271946191788D-06
      .958065013539D+00  .228687500000D+03  .929363121122D+00 -.822534261854D-08
     -.209651589973D-09  .100000000000D+01  .240700000000D+04  .000000000000D+00
      .200000000000D+01  .000000000000D+00 -.107102096081D-07  .320000000000D+02
      .338418000000D+06  .400000000000D+01
G31 2026 02 25 23 59 44 -.164826866239D-03  .216004991671D-11  .000000000000D+00
      .150000000000D+02 -.117187500000D+02  .472805408529D-08  .138363633261D+01
     -.614672899246D-06  .108050085837D-01  .867061316967D-05  .515377147293D+04
      .345584000000D+06 -.195577740669D-06  .683819975504D-01 -.372529029846D-08
      .955054841616D+00  .216093750000D+03  .938590114103D+00 -.808533678673D-08
      .197865384745D-09  .100000000000D+01  .240700000000D+04  .000000000000D+00
      .200000000000D+01  .000000000000D+00 -.135041773319D-07  .150000000000D+02
      .338418000000D+06  .400000000000D+01
G29 2026 02 26 00 00 00 -.369000248611D-03  .682121026330D-11  .000000000000D+00
      .860000000000D+02  .872500000000D+02  .431839416416D-08 -.994540867259D+00
      .426545739174D-05  .336505169980D-02  .924989581108D-05  .515376811028D+04
      .345600000000D+06 -.316649675369D-07  .221306304614D+01 -.372529029846D-07
      .961813344666D+00  .200281250000D+03  .273821423627D+01 -.790497213096D-08
     -.154649298907D-09  .100000000000D+01  .240700000000D+04  .000000000000D+00
      .200000000000D+01  .000000000000D+00 -.977888703346D-08  .860000000000D+02
      .338418000000D+06  .400000000000D+01
G03 2026 02 26 00 00 00  .557946972549D-03 -.120508047985D-10  .000000000000D+00
      .830000000000D+02 -.640625000000D+02  .384730311276D-08  .203297523244D+01
     -.356510281563D-05  .646490883082D-02  .406615436077D-05  .515363110542D+04
      .345600000000D+06 -.502914190292D-07 -.203528638699D+01 -.149011611938D-06
      .993122692529D+00  .315812500000D+03  .120145416004D+01 -.782175437889D-08
     -.832177520677D-10  .100000000000D+01  .240700000000D+04  .000000000000D+00
      .280000000000D+01  .000000000000D+00  .139698386192D-08  .830000000000D+02
      .338418000000D+06  .400000000000D+01
G25 2026 02 26 00 00 00  .441056676209D-03 -.261479726760D-11  .000000000000D+00
      .105000000000D+03  .151875000000D+02  .497520723735D-08  .169671261903D+01
      .616535544395D-06  .129425493069D-01  .742636620998D-05  .515371883392D+04
      .345600000000D+06 -.217929482460D-06  .106803608095D+01 -.275671482086D-06
      .947336806209D+00  .229312500000D+03  .115721493654D+01 -.816926885427D-08
     -.182507602174D-09  .100000000000D+01  .240700000000D+04  .000000000000D+00
      .280000000000D+01  .000000000000D+00  .558793544769D-08  .105000000000D+03
      .338418000000D+06  .400000000000D+01
G32 2026 02 26 00 00 00 -.755069777369D-04  .181898940355D-10  .000000000000D+00
      .440000000000D+02 -.868750000000D+02  .429839333105D-08 -.282968200567D+00
     -.450015068054D-05  .931815151125D-02  .831298530102D-05  .515373201180D+04
      .345600000000D+06 -.745058059692D-08 -.101158443049D+01  .128522515297D-06
      .967716682861D+00  .225250000000D+03 -.200217479427D+01 -.802962018020D-08
      .671456540289D-10  .100000000000D+01  .240700000000D+04  .000000000000D+00
      .200000000000D+01  .000000000000D+00  .931322574615D-09  .440000000000D+02
      .338418000000D+06  .400000000000D+01
G04 2026 02 26 00 00 00  .460529699922D-04  .193267624127D-11  .000000000000D+00
      .530000000000D+02 -.824375000000D+02  .408159858639D-08 -.125903157862D+01
     -.440701842308D-05  .371805927716D-02  .897608697414D-05  .515373678207D+04
      .345600000000D+06  .745058059692D-08 -.964354072029D+00 -.162050127983D-06
      .970530346850D+00  .211687500000D+03 -.288446487036D+01 -.771139263903D-08
      .105718689322D-09  .100000000000D+01  .240700000000D+04  .000000000000D+00
      .200000000000D+01  .000000000000D+00 -.465661287308D-08  .565000000000D+03
      .339228000000D+06  .400000000000D+01
G27 2026 02 26 00 00 00 -.518094748259D-04 -.108002495836D-10  .000000000000D+00
      .120000000000D+02  .686562500000D+02  .465340811884D-08 -.864881096398D+00
      .388734042645D-05  .143423606642D-01  .810436904430D-05  .515366960144D+04
      .345600000000D+06  .176951289177D-06  .212370850432D+01  .266358256340D-06
      .952529752848D+00  .220312500000D+03  .880145637141D+00 -.816391148825D-08
     -.197508227010D-09  .100000000000D+01  .240700000000D+04  .000000000000D+00
      .200000000000D+01  .000000000000D+00  .232830643654D-08  .120000000000D+02
      .341658000000D+06  .400000000000D+01
G18 2026 02 26 00 00 00 -.415846705437D-03  .954969436862D-11  .000000000000D+00
      .720000000000D+02  .810000000000D+02  .433660920861D-08 -.302554152455D+01
      .419840216637D-05  .574137608055D-02  .430643558502D-05  .515364016914D+04
      .345600000000D+06 -.134110450745D-06 -.307660672673D+01 -.447034835815D-07
      .972173284314D+00  .305437500000D+03 -.286169979356D+01 -.803426323074D-08
      .121433629627D-09  .100000000000D+01  .240700000000D+04  .000000000000D+00
      .200000000000D+01  .000000000000D+00 -.838190317154D-08  .328000000000D+03
      .343656000000D+06  .400000000000D+01
G09 2026 02 26 00 00 00  .768765807152D-03 -.125055521494D-11  .000000000000D+00
      .120000000000D+02 -.923750000000D+02  .423160483476D-08 -.366380550546D+00
     -.488758087158D-05  .336804310791D-02  .897422432899D-05  .515378576851D+04
      .345600000000D+06 -.126659870148D-06 -.102857433828D+01 -.521540641785D-07
      .964660794748D+00  .207781250000D+03  .206574400200D+01 -.787568519676D-08
      .120362156424D-09  .100000000000D+01  .240700000000D+04  .000000000000D+00
      .200000000000D+01  .000000000000D+00  .465661287308D-09  .120000000000D+02
      .343812000000D+06  .400000000000D+01
G08 2026 02 26 00 00 00  .486549455673D-03 -.545696821064D-11  .000000000000D+00
      .120000000000D+02  .614375000000D+02  .478912805784D-08 -.964424017069D+00
      .334344804287D-05  .115596901160D-01  .770017504692D-05  .515368877983D+04
      .345600000000D+06  .279396772385D-06  .209171766777D+01  .130385160446D-07
      .943413564207D+00  .218156250000D+03  .522200953960D+00 -.816641159239D-08
     -.178936024832D-09  .100000000000D+01  .240700000000D+04  .000000000000D+00
      .200000000000D+01  .000000000000D+00  .465661287308D-08  .120000000000D+02
      .344826000000D+06  .400000000000D+01
